satname,norad_id,inclination_deg,eccentricity,mean_motion_rev_per_day,perigee_km,apogee_km,l1,l2
STARLINK-1365,45590,53.0543,0.0001432,15.06392034,546.2442592788639,548.227686098242,1 45590U 20025BM  25254.23656694  .00001718  00000+0  13421-3 0  9991,2 45590  53.0543 192.2152 0001432  88.5003 271.6150 15.06392034298050
STARLINK-1443,45660,53.0542,0.0001514,15.06393633,546.1825712189011,548.2795726710856,1 45660U 20035D   25254.15548020  .00000687  00000+0  65054-4 0  9998,2 45660  53.0542 152.5818 0001514  98.6768 261.4392 15.06393633291678
STARLINK-1446,45663,53.0264,0.0007444,15.28260167,475.9072353556621,486.1191381537037,1 45663U 20035G   25253.92361151  .00033496  00000+0  12068-2 0  9992,2 45663  53.0264 125.3644 0007444  90.8542 269.3309 15.28260167292034
STARLINK-1448,45665,53.0534,0.0001312,15.06401202,546.2992687363803,548.1164792313139,1 45665U 20035J   25254.02648572  .00006712  00000+0  46908-3 0  9993,2 45665  53.0534 153.1576 0001312  97.8246 262.2892 15.06401202291643
STARLINK-1451,45668,53.0541,0.0001449,15.06392122,546.2322164742027,548.2391894835264,1 45668U 20035M   25254.16289074  .00002684  00000+0  19903-3 0  9998,2 45668  53.0541 152.8638 0001449 101.1983 258.9169 15.06392122291679
STARLINK-1452,45669,53.0514,0.0004049,15.20922221,500.2713739380215,505.8437653004994,1 45669U 20035N   25254.11627755  .00027473  00000+0  12360-2 0  9998,2 45669  53.0514 140.1669 0004049 156.9646 203.1532 15.20922221291847
STARLINK-1453,45670,53.055,0.0001407,15.06417625,546.1831514365867,548.1319293202496,1 45670U 20035P   25254.04027383  .00003891  00000+0  27984-3 0  9990,2 45670  53.0550 123.0988 0001407  21.2723 338.8324 15.06417625291967
STARLINK-1454,45671,53.0534,0.0001356,15.06382105,546.3273193772775,548.2054887804625,1 45671U 20035Q   25253.98593196  .00000562  00000+0  56669-4 0  9998,2 45671  53.0534 153.3406 0001356  88.8904 271.2241 15.06382105291630
STARLINK-1456,45673,53.0543,0.000139,15.06394942,546.2644344188247,548.1896856275098,1 45673U 20035S   25254.00066584 -.00000395  00000+0 -76510-5 0  9994,2 45673  53.0543 153.2758 0001390  89.4083 270.7065 15.06394942291656
STARLINK-1457,45674,53.0538,0.0001259,15.06398278,546.3449335773848,548.0887376731962,1 45674U 20035T   25253.94168623 -.00000648  00000+0 -24636-4 0  9996,2 45674  53.0538 153.5401 0001259  94.2763 265.8370 15.06398278291618
STARLINK-1458,45675,53.0543,0.0001402,15.06395946,546.2530472824574,548.1949185020603,1 45675U 20035U   25254.12967200  .00002937  00000+0  21598-3 0  9990,2 45675  53.0543 152.6930 0001402  96.5703 263.5446 15.06395946291631
STARLINK-1460,45676,53.0544,0.0001588,15.06390457,546.1410560176437,548.3405560088322,1 45676U 20035V   25253.96749273 -.00000909  00000+0 -42164-4 0  9992,2 45676  53.0544 153.4213 0001588  83.5199 276.5971 15.06390457291602
STARLINK-1392,45677,53.0544,0.0001563,15.06393728,546.1483457975046,548.3132157657765,1 45677U 20035W   25253.97855051 -.00001019  00000+0 -49551-4 0  9996,2 45677  53.0544 153.3740 0001563  94.3152 265.8016 15.06393728291648
STARLINK-1394,45679,53.0532,0.0001301,15.06393056,546.3318497636792,548.1338309961466,1 45679U 20035Y   25253.97579344  .00003104  00000+0  22723-3 0  9992,2 45679  53.0532 143.3859 0001301  88.9459 271.1679 15.06393056291780
STARLINK-1402,45685,53.0541,0.0001431,15.06393912,546.2391967955555,548.2212368930168,1 45685U 20035AE  25253.94022310  .00000004  00000+0  19164-4 0  9994,2 45685  53.0541 137.9670 0001431  88.2490 271.8663 15.06393912291869
STARLINK-1404,45686,53.0535,0.000139,15.06391043,546.2763827238678,548.2016372546441,1 45686U 20035AF  25254.06794208  .00000898  00000+0  79203-4 0  9992,2 45686  53.0535 142.9749 0001390  96.1720 263.9427 15.06391043291801
STARLINK-1413,45689,53.0528,0.000137,15.06390342,546.2923816677066,548.1899352831297,1 45689U 20035AJ  25254.08636946  .00002088  00000+0  15903-3 0  9990,2 45689  53.0528 142.8870 0001370 101.5089 258.6054 15.06390342291715
STARLINK-1417,45693,53.0536,0.0001388,15.06391704,546.2757421911301,548.1982260091154,1 45693U 20035AN  25254.08268043  .00002615  00000+0  19441-3 0  9991,2 45693  53.0536 142.9088 0001388  78.0960 282.0184 15.06391704291792
STARLINK-1420,45695,53.0547,0.0001433,15.06392051,546.243514646022,548.2283265250617,1 45695U 20035AQ  25254.08357986  .00000738  00000+0  68462-4 0  9990,2 45695  53.0547 122.8934 0001433  93.6062 266.5091 15.06392051292083
STARLINK-1422,45696,53.0537,0.00014,15.06394157,546.2599146443827,548.1990172548485,1 45696U 20035AR  25254.09374360  .00002088  00000+0  15908-3 0  9993,2 45696  53.0537 142.8576 0001400  92.6332 267.4817 15.06394157291792
STARLINK-1351,45697,53.0546,0.0001364,15.06388382,546.3025432636341,548.1917880640267,1 45697U 20035AS  25254.06978299  .00000109  00000+0  26206-4 0  9998,2 45697  53.0546 122.9640 0001364  93.9027 266.2118 15.06388382292085
STARLINK-1398,45699,53.0524,0.0008296,15.41083964,437.2501881824046,448.5676675859513,1 45699U 20035AU  25253.94668274  .00074015  00000+0  17537-2 0  9997,2 45699  53.0524  97.1880 0008296 100.5945 259.5994 15.41083964292430
STARLINK-1400,45700,53.0535,0.0001344,15.06389924,546.3116686025187,548.1732105958836,1 45700U 20035AV  25254.04397935  .00004680  00000+0  33298-3 0  9999,2 45700  53.0535 123.0820 0001344  89.6767 270.4376 15.06389924292076
STARLINK-1403,45701,53.0564,0.0001456,15.06391262,546.2300041299031,548.2466734285545,1 45701U 20035AW  25253.94077256  .00000492  00000+0  51936-4 0  9996,2 45701  53.0564 123.5446 0001456  92.4342 267.6814 15.06391262292054
STARLINK-1407,45703,53.0447,0.0006738,15.32975151,462.32925770012844,471.5536854484217,1 45703U 20035AY  25253.82610294  .00056614  00000+0  17500-2 0  9994,2 45703  53.0447  93.5792 0006738 179.2607 180.8404 15.32975151292473
STARLINK-1411,45706,53.0531,0.00017,15.26041957,486.4912324957695,488.8256029377935,1 45706U 20035BB  25254.25004630  .00029273  00000+0  11308-2 0  9997,2 45706  53.0531 117.3777 0001700  92.1658 331.2240 15.26041957  5575
STARLINK-1423,45710,53.055,0.0001364,15.06393833,546.2858388481454,548.1750790909527,1 45710U 20035BF  25254.03291977  .00001837  00000+0  14219-3 0  9991,2 45710  53.0550 123.1317 0001364  88.0933 272.0212 15.06393833292077
STARLINK-1433,45711,53.055,0.0001402,15.06383837,546.2901548353002,548.2320364613197,1 45711U 20035BG  25254.01449436  .00000557  00000+0  56330-4 0  9994,2 45711  53.0550 123.2141 0001402  93.6502 266.4647 15.06383837292062
